{"type": "FeatureCollection", "features": [ {"type": "Feature", "properties": {"norad_id": 45358, "name": "COSMOS 2545 (760)", "group": "glo-ops", "lat": -4.163533204983226, "lon": 140.81843953803343, "alt_km": 19118.07838856979, "timestamp": "2025-12-16T10:53:45.730510+00:00", "meta": {"OBJECT_NAME": "COSMOS 2545 (760)", "OBJECT_ID": "2020-018A", "EPOCH": "2025-12-14T19:19:41.135808", "MEAN_MOTION": 2.13102428, "ECCENTRICITY": 0.00117069, "INCLINATION": 64.4681, "RA_OF_ASC_NODE": 318.8965, "ARG_OF_PERICENTER": 249.0608, "MEAN_ANOMALY": 110.81, "EPHEMERIS_TYPE": 0, "CLASSIFICATION_TYPE": "U", "NORAD_CAT_ID": 45358, "ELEMENT_SET_NO": 999, "REV_AT_EPOCH": 4473, "BSTAR": 0, "MEAN_MOTION_DOT": -6.9e-07, "MEAN_MOTION_DDOT": 0}, "tle": {"line1": "1 45358U 20018A   25348.80533722 -.00000069  00000+0  00000+0 0  9992", "line2": "2 45358  64.4681 318.8965 0011706 249.0608 110.8100  2.13102428 44732"}}, "geometry": {"type": "Point", "coordinates": [140.81843953803343, -4.163533204983226]}}, {"type": "Feature", "properties": {"norad_id": 46805, "name": "COSMOS 2547 (705K)", "group": "glo-ops", "lat": 35.860386670663985, "lon": -141.33158473189928, "alt_km": 19141.663074424447, "timestamp": "2025-12-16T10:53:45.730522+00:00", "meta": {"OBJECT_NAME": "COSMOS 2547 (705K)", "OBJECT_ID": "2020-075A", "EPOCH": "2025-12-15T22:22:03.065088", "MEAN_MOTION": 2.13100081, "ECCENTRICITY": 0.00062311, "INCLINATION": 64.5961, "RA_OF_ASC_NODE": 198.5898, "ARG_OF_PERICENTER": 228.6409, "MEAN_ANOMALY": 131.3861, "EPHEMERIS_TYPE": 0, "CLASSIFICATION_TYPE": "U", "NORAD_CAT_ID": 46805, "ELEMENT_SET_NO": 999, "REV_AT_EPOCH": 4000, "BSTAR": 0, "MEAN_MOTION_DOT": 1.08e-06, "MEAN_MOTION_DDOT": 0}, "tle": {"line1": "1 46805U 20075A   25349.93197992  .00000108  00000+0  00000+0 0  9996", "line2": "2 46805  64.5961 198.5898 0006231 228.6409 131.3861  2.13100081 40000"}}, "geometry": {"type": "Point", "coordinates": [-141.33158473189928, 35.860386670663985]}}, {"type": "Feature", "properties": {"norad_id": 52984, "name": "COSMOS 2557 (706K)", "group": "glo-ops", "lat": -64.1650929754189, "lon": -120.8613267461601, "alt_km": 19101.492321023754, "timestamp": "2025-12-16T10:53:45.730533+00:00", "meta": {"OBJECT_NAME": "COSMOS 2557 (706K)", "OBJECT_ID": "2022-075A", "EPOCH": "2025-12-15T15:04:15.324096", "MEAN_MOTION": 2.13101866, "ECCENTRICITY": 0.00137175, "INCLINATION": 64.4076, "RA_OF_ASC_NODE": 320.9495, "ARG_OF_PERICENTER": 276.9327, "MEAN_ANOMALY": 82.9073, "EPHEMERIS_TYPE": 0, "CLASSIFICATION_TYPE": "U", "NORAD_CAT_ID": 52984, "ELEMENT_SET_NO": 999, "REV_AT_EPOCH": 2680, "BSTAR": 0, "MEAN_MOTION_DOT": -6.9e-07, "MEAN_MOTION_DDOT": 0}, "tle": {"line1": "1 52984U 22075A   25349.62795514 -.00000069  00000+0  00000+0 0  9990", "line2": "2 52984  64.4076 320.9495 0013717 276.9327  82.9073  2.13101866 26807"}}, "geometry": {"type": "Point", "coordinates": [-120.8613267461601, -64.1650929754189]}}, {"type": "Feature", "properties": {"norad_id": 54031, "name": "COSMOS 2559 (707K)", "group": "glo-ops", "lat": 45.529586536231676, "lon": -9.74642762309745, "alt_km": 19147.63046268676, "timestamp": "2025-12-16T10:53:45.730544+00:00", "meta": {"OBJECT_NAME": "COSMOS 2559 (707K)", "OBJECT_ID": "2022-130A", "EPOCH": "2025-12-14T00:56:40.379136", "MEAN_MOTION": 2.13101379, "ECCENTRICITY": 0.00117642, "INCLINATION": 64.3815, "RA_OF_ASC_NODE": 321.0953, "ARG_OF_PERICENTER": 192.3475, "MEAN_ANOMALY": 167.6228, "EPHEMERIS_TYPE": 0, "CLASSIFICATION_TYPE": "U", "NORAD_CAT_ID": 54031, "ELEMENT_SET_NO": 999, "REV_AT_EPOCH": 2474, "BSTAR": 0, "MEAN_MOTION_DOT": -6.6e-07, "MEAN_MOTION_DDOT": 0}, "tle": {"line1": "1 54031U 22130A   25348.03935624 -.00000066  00000+0  00000+0 0  9996", "line2": "2 54031  64.3815 321.0953 0011764 192.3475 167.6228  2.13101379 24741"}}, "geometry": {"type": "Point", "coordinates": [-9.74642762309745, 45.529586536231676]}}, {"type": "Feature", "properties": {"norad_id": 54377, "name": "COSMOS 2564 (761)", "group": "glo-ops", "lat": 7.306679777374986, "lon": 15.307206869320863, "alt_km": 19110.995998673447, "timestamp": "2025-12-16T10:53:45.730555+00:00", "meta": {"OBJECT_NAME": "COSMOS 2564 (761)", "OBJECT_ID": "2022-161A", "EPOCH": "2025-12-15T18:15:16.365312", "MEAN_MOTION": 2.13102109, "ECCENTRICITY": 0.0008585, "INCLINATION": 64.7384, "RA_OF_ASC_NODE": 198.7985, "ARG_OF_PERICENTER": 204.4254, "MEAN_ANOMALY": 155.6143, "EPHEMERIS_TYPE": 0, "CLASSIFICATION_TYPE": "U", "NORAD_CAT_ID": 54377, "ELEMENT_SET_NO": 999, "REV_AT_EPOCH": 2372, "BSTAR": 0, "MEAN_MOTION_DOT": 1.07e-06, "MEAN_MOTION_DDOT": 0}, "tle": {"line1": "1 54377U 22161A   25349.76060608  .00000107  00000+0  00000+0 0  9990", "line2": "2 54377  64.7384 198.7985 0008585 204.4254 155.6143  2.13102109 23722"}}, "geometry": {"type": "Point", "coordinates": [15.307206869320863, 7.306679777374986]}}, {"type": "Feature", "properties": {"norad_id": 57517, "name": "COSMOS 2569 (703K)", "group": "glo-ops", "lat": 16.687406208256558, "lon": -109.16059514104501, "alt_km": 19143.761621919937, "timestamp": "2025-12-16T10:53:45.730566+00:00", "meta": {"OBJECT_NAME": "COSMOS 2569 (703K)", "OBJECT_ID": "2023-114A", "EPOCH": "2025-12-15T18:34:28.855776", "MEAN_MOTION": 2.13104005, "ECCENTRICITY": 0.00106213, "INCLINATION": 65.1958, "RA_OF_ASC_NODE": 78.811, "ARG_OF_PERICENTER": 287.0195, "MEAN_ANOMALY": 72.8787, "EPHEMERIS_TYPE": 0, "CLASSIFICATION_TYPE": "U", "NORAD_CAT_ID": 57517, "ELEMENT_SET_NO": 999, "REV_AT_EPOCH": 1835, "BSTAR": 0, "MEAN_MOTION_DOT": -5.6e-07, "MEAN_MOTION_DDOT": 0}, "tle": {"line1": "1 57517U 23114A   25349.77394509 -.00000056  00000+0  00000+0 0  9993", "line2": "2 57517  65.1958  78.8110 0010621 287.0195  72.8787  2.13104005 18350"}}, "geometry": {"type": "Point", "coordinates": [-109.16059514104501, 16.687406208256558]}}, {"type": "Feature", "properties": {"norad_id": 63130, "name": "COSMOS 2584 (704K)", "group": "glo-ops", "lat": -57.63353582295152, "lon": -53.60465209062566, "alt_km": 19119.21289384648, "timestamp": "2025-12-16T10:53:45.730578+00:00", "meta": {"OBJECT_NAME": "COSMOS 2584 (704K)", "OBJECT_ID": "2025-042A", "EPOCH": "2025-12-14T17:19:43.603680", "MEAN_MOTION": 2.13103043, "ECCENTRICITY": 0.00076907, "INCLINATION": 64.977, "RA_OF_ASC_NODE": 79.0784, "ARG_OF_PERICENTER": 217.9412, "MEAN_ANOMALY": 142.0178, "EPHEMERIS_TYPE": 0, "CLASSIFICATION_TYPE": "U", "NORAD_CAT_ID": 63130, "ELEMENT_SET_NO": 999, "REV_AT_EPOCH": 611, "BSTAR": 0, "MEAN_MOTION_DOT": -5.6e-07, "MEAN_MOTION_DDOT": 0}, "tle": {"line1": "1 63130U 25042A   25348.72203245 -.00000056  00000+0  00000+0 0  9993", "line2": "2 63130  64.9770  79.0784 0007690 217.9412 142.0178  2.13103043  6119"}}, "geometry": {"type": "Point", "coordinates": [-53.60465209062566, -57.63353582295152]}}, {"type": "Feature", "properties": {"norad_id": 65590, "name": "COSMOS 2596 (708K)", "group": "glo-ops", "lat": 6.567749437332478, "lon": -35.55256313725236, "alt_km": 19111.988477860818, "timestamp": "2025-12-16T10:53:45.730589+00:00", "meta": {"OBJECT_NAME": "COSMOS 2596 (708K)", "OBJECT_ID": "2025-206B", "EPOCH": "2025-12-15T06:31:38.583840", "MEAN_MOTION": 2.13100545, "ECCENTRICITY": 0.00140608, "INCLINATION": 64.7428, "RA_OF_ASC_NODE": 321.386, "ARG_OF_PERICENTER": 306.8373, "MEAN_ANOMALY": 233.4816, "EPHEMERIS_TYPE": 0, "CLASSIFICATION_TYPE": "U", "NORAD_CAT_ID": 65590, "ELEMENT_SET_NO": 999, "REV_AT_EPOCH": 199, "BSTAR": 0, "MEAN_MOTION_DOT": -6.8e-07, "MEAN_MOTION_DDOT": 0}, "tle": {"line1": "1 65590U 25206B   25349.27197435 -.00000068  00000+0  00000+0 0  9994", "line2": "2 65590  64.7428 321.3860 0014060 306.8373 233.4816  2.13100545  1999"}}, "geometry": {"type": "Point", "coordinates": [-35.55256313725236, 6.567749437332478]}}]}